[{"OBJECT_NAME":"YAOGAN-35 01C","OBJECT_ID":"2021-101D","EPOCH":"2026-03-09T23:21:58.673664","MEAN_MOTION":15.23336833,"ECCENTRICITY":0.00093494,"INCLINATION":35.0028,"RA_OF_ASC_NODE":168.8735,"ARG_OF_PERICENTER":247.0598,"MEAN_ANOMALY":112.9131,"EPHEMERIS_TYPE":0,"CLASSIFICATION_TYPE":"U","NORAD_CAT_ID":49393,"ELEMENT_SET_NO":999,"REV_AT_EPOCH":24187,"BSTAR":0.0007564285,"MEAN_MOTION_DOT":0.00018436,"MEAN_MOTION_DDOT":0},{"OBJECT_NAME":"GEOSCAN 2 (RS92S2)","OBJECT_ID":"2025-155Q","EPOCH":"2026-03-09T23:01:48.939744","MEAN_MOTION":15.28709337,"ECCENTRICITY":0.00085277,"INCLINATION":97.4463,"RA_OF_ASC_NODE":37.5259,"ARG_OF_PERICENTER":140.9505,"MEAN_ANOMALY":219.2352,"EPHEMERIS_TYPE":0,"CLASSIFICATION_TYPE":"U","NORAD_CAT_ID":64890,"ELEMENT_SET_NO":999,"REV_AT_EPOCH":6561,"BSTAR":0.00051551761,"MEAN_MOTION_DOT":0.00014341,"MEAN_MOTION_DDOT":0}]
